[{"OBJECT_NAME":"STARLINK-36225","OBJECT_ID":"2025-304R","EPOCH":"2026-03-09T16:36:17.634528","MEAN_MOTION":14.98339003,"ECCENTRICITY":0.0003352,"INCLINATION":70.003,"RA_OF_ASC_NODE":174.5024,"ARG_OF_PERICENTER":265.5756,"MEAN_ANOMALY":94.502,"EPHEMERIS_TYPE":0,"CLASSIFICATION_TYPE":"U","NORAD_CAT_ID":67207,"ELEMENT_SET_NO":999,"REV_AT_EPOCH":1388,"BSTAR":0.00038756376,"MEAN_MOTION_DOT":4.536e-5,"MEAN_MOTION_DDOT":0},{"OBJECT_NAME":"OBJECT F","OBJECT_ID":"2025-026F","EPOCH":"2026-03-09T16:35:22.568352","MEAN_MOTION":14.96835273,"ECCENTRICITY":0.001234,"INCLINATION":81.996,"RA_OF_ASC_NODE":175.2789,"ARG_OF_PERICENTER":38.1083,"MEAN_ANOMALY":322.1008,"EPHEMERIS_TYPE":0,"CLASSIFICATION_TYPE":"U","NORAD_CAT_ID":63330,"ELEMENT_SET_NO":999,"REV_AT_EPOCH":5316,"BSTAR":0.00045702,"MEAN_MOTION_DOT":5.266e-5,"MEAN_MOTION_DDOT":0}]
